{"type":"FeatureCollection","features":[{"type":"Feature","properties":{"codigo":"A","nombre":"Lambramani","fuente":"GDU - MDJLBYR, Plan de Contingencia por Sismos 2019, pagina 55","precision":"Digitalizacion referencial de mapa raster 636x641"},"geometry":{"type":"Polygon","coordinates":[[[-71.5072735,-16.4102977],[-71.5080308,-16.410223],[-71.5084094,-16.4095501],[-71.5101511,-16.4095501],[-71.5101511,-16.410223],[-71.5109841,-16.4107463],[-71.5206012,-16.4108959],[-71.5271893,-16.4128398],[-71.5284009,-16.4142603],[-71.5274165,-16.4147089],[-71.5263563,-16.4164286],[-71.5249175,-16.4203164],[-71.5249175,-16.4213631],[-71.5259777,-16.422036],[-71.5254476,-16.4242043],[-71.5259777,-16.425251],[-71.5224943,-16.4251762],[-71.5169664,-16.4280173],[-71.5149975,-16.4277183],[-71.5174965,-16.4225594],[-71.5177236,-16.420765],[-71.5166635,-16.4160547],[-71.5162849,-16.411494],[-71.5153004,-16.4108959],[-71.5083337,-16.4109706],[-71.5072735,-16.4102977]]]}},{"type":"Feature","properties":{"codigo":"B","nombre":"Adepa - Bancarios","fuente":"GDU - MDJLBYR, Plan de Contingencia por Sismos 2019, pagina 55","precision":"Digitalizacion referencial de mapa raster 636x641"},"geometry":{"type":"Polygon","coordinates":[[[-71.5279466,-16.4143351],[-71.5286281,-16.4143351],[-71.5295368,-16.4151575],[-71.5312027,-16.4159052],[-71.5318085,-16.4165781],[-71.5324901,-16.4166529],[-71.5337017,-16.4175501],[-71.5329444,-16.4188959],[-71.5324143,-16.4203912],[-71.5324143,-16.4210641],[-71.5337774,-16.4222603],[-71.5346861,-16.4251762],[-71.5318085,-16.4254005],[-71.5254476,-16.4251762],[-71.5259777,-16.4221856],[-71.5251447,-16.4215874],[-71.5249933,-16.4203912],[-71.526432,-16.4165781],[-71.5279466,-16.4143351]]]}},{"type":"Feature","properties":{"codigo":"C","nombre":"Plataforma C.C. Andres Avelino Caceres","fuente":"GDU - MDJLBYR, Plan de Contingencia por Sismos 2019, pagina 55","precision":"Digitalizacion referencial de mapa raster 636x641"},"geometry":{"type":"Polygon","coordinates":[[[-71.5337774,-16.4176248],[-71.5345347,-16.4176996],[-71.534989,-16.4181482],[-71.5361249,-16.4185968],[-71.5368821,-16.419494],[-71.5386995,-16.4206902],[-71.5405169,-16.4211388],[-71.5411985,-16.4216622],[-71.5433188,-16.4222603],[-71.5441518,-16.4227089],[-71.544076,-16.4229332],[-71.542713,-16.4233071],[-71.5424101,-16.4236061],[-71.5420315,-16.4234566],[-71.5415771,-16.4236061],[-71.5411985,-16.42398],[-71.541047,-16.4261482],[-71.5387753,-16.4280173],[-71.5376394,-16.4269706],[-71.5352162,-16.4257743],[-71.5348376,-16.4253257],[-71.5344589,-16.4232323],[-71.5339288,-16.4221856],[-71.532793,-16.4213631],[-71.5325658,-16.4209145],[-71.5325658,-16.4203912],[-71.5337774,-16.4176248]]]}},{"type":"Feature","properties":{"codigo":"D","nombre":"Cerro Juli","fuente":"GDU - MDJLBYR, Plan de Contingencia por Sismos 2019, pagina 55","precision":"Digitalizacion referencial de mapa raster 636x641"},"geometry":{"type":"Polygon","coordinates":[[[-71.5419557,-16.4233818],[-71.5426373,-16.42398],[-71.5436974,-16.4243538],[-71.5452876,-16.4262977],[-71.5477866,-16.4281669],[-71.5455148,-16.4305594],[-71.5455148,-16.4312323],[-71.5467264,-16.4321295],[-71.5466507,-16.4339986],[-71.5469536,-16.4342977],[-71.5463478,-16.4345968],[-71.5446061,-16.4364659],[-71.5442275,-16.4375126],[-71.5437731,-16.4377369],[-71.5430916,-16.4375874],[-71.5422586,-16.4381855],[-71.5415771,-16.4381855],[-71.5411228,-16.4375126],[-71.5399111,-16.4371388],[-71.5401383,-16.435793],[-71.5393811,-16.4345968],[-71.5394568,-16.433251],[-71.5382452,-16.4319052],[-71.5382452,-16.4315313],[-71.5368821,-16.4303351],[-71.5358977,-16.4308584],[-71.5412742,-16.4260734],[-71.5411985,-16.4235314],[-71.5419557,-16.4233818]]]}},{"type":"Feature","properties":{"codigo":"E","nombre":"Villa Electrica - Fecia Las Begonias - Melgariana","fuente":"GDU - MDJLBYR, Plan de Contingencia por Sismos 2019, pagina 55","precision":"Digitalizacion referencial de mapa raster 636x641"},"geometry":{"type":"Polygon","coordinates":[[[-71.5386995,-16.4280921],[-71.5374122,-16.4295127],[-71.5365035,-16.430036],[-71.532793,-16.4304846],[-71.5241603,-16.4289145],[-71.5193896,-16.4268958],[-71.5218885,-16.4254005],[-71.5227215,-16.425251],[-71.5313542,-16.42555],[-71.5345347,-16.425251],[-71.5386995,-16.4280921]]]}},{"type":"Feature","properties":{"codigo":"F","nombre":"13 de Enero - Juan Pablo Vizcardo y Guzman - Satelite Grande - Mi Peru - Dolores - Monterrey","fuente":"GDU - MDJLBYR, Plan de Contingencia por Sismos 2019, pagina 55","precision":"Digitalizacion referencial de mapa raster 636x641"},"geometry":{"type":"Polygon","coordinates":[[[-71.5358977,-16.4303351],[-71.536655,-16.4351949],[-71.5342317,-16.4354192],[-71.5324143,-16.4347463],[-71.5312785,-16.435494],[-71.5313542,-16.4363911],[-71.5308241,-16.4361668],[-71.528098,-16.4372883],[-71.5256748,-16.4373631],[-71.5224943,-16.4362416],[-71.5214342,-16.4372136],[-71.5146946,-16.4375126],[-71.5122714,-16.4383351],[-71.5095453,-16.4408024],[-71.5060619,-16.4418491],[-71.504396,-16.4431949],[-71.5081065,-16.438036],[-71.5093181,-16.4345968],[-71.5118171,-16.4334005],[-71.5128015,-16.4313818],[-71.5124229,-16.4302603],[-71.5137859,-16.4298865],[-71.5147704,-16.4278678],[-71.5166635,-16.4282416],[-71.5192381,-16.4269706],[-71.5260534,-16.4295127],[-71.5328687,-16.4306341],[-71.5358977,-16.4303351]]]}},{"type":"Feature","properties":{"codigo":"G","nombre":"Simon Bolivar - Las Esmeraldas","fuente":"GDU - MDJLBYR, Plan de Contingencia por Sismos 2019, pagina 55","precision":"Digitalizacion referencial de mapa raster 636x641"},"geometry":{"type":"Polygon","coordinates":[[[-71.5287795,-16.4384846],[-71.5283252,-16.4396061],[-71.5274165,-16.4396061],[-71.5261291,-16.4405033],[-71.5249933,-16.4423724],[-71.5236302,-16.4430453],[-71.5198439,-16.442821],[-71.519011,-16.4433444],[-71.5196925,-16.4470827],[-71.5179508,-16.4478304],[-71.5162849,-16.4508958],[-71.5163606,-16.4519425],[-71.5171936,-16.4527649],[-71.5148461,-16.4552322],[-71.5084852,-16.4512696],[-71.5041688,-16.4502977],[-71.50273,-16.4487276],[-71.5018213,-16.4464846],[-71.5028058,-16.4438678],[-71.5048503,-16.4431949],[-71.5064406,-16.4418491],[-71.5093181,-16.4411762],[-71.5121957,-16.4385594],[-71.5146189,-16.4376622],[-71.5208284,-16.4373631],[-71.5216614,-16.4364659],[-71.5256748,-16.4374379],[-71.5277951,-16.4373631],[-71.5287795,-16.4384846]]]}}]}